{
  "type": "FeatureCollection",
  "features": [
    {
      "type": "Feature",
      "properties": {
        "norad_id": 66625,
        "name": "STARLINK-35929",
        "group": "last-30-days",
        "lat": -21.83683715079347,
        "lon": 111.77521551599106,
        "alt_km": 450.38672868678805,
        "timestamp": "2025-12-24T22:42:20.744168+00:00",
        "meta_object_name": "STARLINK-35929",
        "meta_object_id": "2025-271J",
        "meta_epoch": "2025-12-24T02:34:23.921184",
        "meta_mean_motion": 15.39636358,
        "meta_eccentricity": 0.00010769,
        "meta_inclination": 53.1612,
        "meta_ra_of_asc_node": 133.2116,
        "meta_arg_of_pericenter": 83.5284,
        "meta_mean_anomaly": 276.5843,
        "meta_ephemeris_type": 0,
        "meta_classification_type": "U",
        "meta_norad_cat_id": 66625,
        "meta_element_set_no": 999,
        "meta_rev_at_epoch": 596,
        "meta_bstar": 0.0016519887,
        "meta_mean_motion_dot": 0.00066291,
        "meta_mean_motion_ddot": 0,
        "tle_line1": "1 66625U 25271J   25358.10722131  .00066291  00000+0  16520-2 0  9991",
        "tle_line2": "2 66625  53.1612 133.2116 0001076  83.5284 276.5843 15.39636358  5960"
      },
      "geometry": {
        "type": "Point",
        "coordinates": [
          111.77521551599106,
          -21.83683715079347
        ]
      }
    },
    {
      "type": "Feature",
      "properties": {
        "norad_id": 66626,
        "name": "STARLINK-35902",
        "group": "last-30-days",
        "lat": -50.71426464234948,
        "lon": 15.818285052243917,
        "alt_km": 451.7568960637482,
        "timestamp": "2025-12-24T22:42:20.744178+00:00",
        "meta_object_name": "STARLINK-35902",
        "meta_object_id": "2025-271K",
        "meta_epoch": "2025-12-23T20:40:32.560608",
        "meta_mean_motion": 15.39657633,
        "meta_eccentricity": 3.018e-05,
        "meta_inclination": 53.1603,
        "meta_ra_of_asc_node": 134.5213,
        "meta_arg_of_pericenter": 38.6055,
        "meta_mean_anomaly": 321.4971,
        "meta_ephemeris_type": 0,
        "meta_classification_type": "U",
        "meta_norad_cat_id": 66626,
        "meta_element_set_no": 999,
        "meta_rev_at_epoch": 592,
        "meta_bstar": 0.0011579429,
        "meta_mean_motion_dot": 0.00046256,
        "meta_mean_motion_ddot": 0,
        "tle_line1": "1 66626U 25271K   25357.86148797  .00046256  00000+0  11579-2 0  9992",
        "tle_line2": "2 66626  53.1603 134.5213 0000301  38.6055 321.4971 15.39657633  5927"
      },
      "geometry": {
        "type": "Point",
        "coordinates": [
          15.818285052243917,
          -50.71426464234948
        ]
      }
    },
    {
      "type": "Feature",
      "properties": {
        "norad_id": 66627,
        "name": "STARLINK-35904",
        "group": "last-30-days",
        "lat": -40.027757458580005,
        "lon": 90.28259952139804,
        "alt_km": 452.6042282254084,
        "timestamp": "2025-12-24T22:42:20.744188+00:00",
        "meta_object_name": "STARLINK-35904",
        "meta_object_id": "2025-271L",
        "meta_epoch": "2025-12-24T02:41:05.526528",
        "meta_mean_motion": 15.39625433,
        "meta_eccentricity": 0.00023372,
        "meta_inclination": 53.1614,
        "meta_ra_of_asc_node": 133.2407,
        "meta_arg_of_pericenter": 88.5134,
        "meta_mean_anomaly": 271.6139,
        "meta_ephemeris_type": 0,
        "meta_classification_type": "U",
        "meta_norad_cat_id": 66627,
        "meta_element_set_no": 999,
        "meta_rev_at_epoch": 592,
        "meta_bstar": 0.0014526718,
        "meta_mean_motion_dot": 0.00058163,
        "meta_mean_motion_ddot": 0,
        "tle_line1": "1 66627U 25271L   25358.11186952  .00058163  00000+0  14527-2 0  9993",
        "tle_line2": "2 66627  53.1614 133.2407 0002337  88.5134 271.6139 15.39625433  5929"
      },
      "geometry": {
        "type": "Point",
        "coordinates": [
          90.28259952139804,
          -40.027757458580005
        ]
      }
    },
    {
      "type": "Feature",
      "properties": {
        "norad_id": 66628,
        "name": "STARLINK-35862",
        "group": "last-30-days",
        "lat": 51.22750963031001,
        "lon": -161.98262223174495,
        "alt_km": 439.41682857066553,
        "timestamp": "2025-12-24T22:42:20.744199+00:00",
        "meta_object_name": "STARLINK-35862",
        "meta_object_id": "2025-271M",
        "meta_epoch": "2025-12-24T08:00:03.000384",
        "meta_mean_motion": 15.39572642,
        "meta_eccentricity": 0.00011839,
        "meta_inclination": 53.1599,
        "meta_ra_of_asc_node": 131.9373,
        "meta_arg_of_pericenter": 83.9555,
        "meta_mean_anomaly": 195.165,
        "meta_ephemeris_type": 0,
        "meta_classification_type": "U",
        "meta_norad_cat_id": 66628,
        "meta_element_set_no": 999,
        "meta_rev_at_epoch": 610,
        "meta_bstar": 0.001901921,
        "meta_mean_motion_dot": 0.00076321,
        "meta_mean_motion_ddot": 0,
        "tle_line1": "1 66628U 25271M   25358.33336806  .00076321  00000+0  19019-2 0  9990",
        "tle_line2": "2 66628  53.1599 131.9373 0001183  83.9555 195.1650 15.39572642  6105"
      },
      "geometry": {
        "type": "Point",
        "coordinates": [
          -161.98262223174495,
          51.22750963031001
        ]
      }
    },
    {
      "type": "Feature",
      "properties": {
        "norad_id": 66629,
        "name": "STARLINK-35956",
        "group": "last-30-days",
        "lat": -52.436055807689115,
        "lon": 51.66967032332661,
        "alt_km": 408.6863224365816,
        "timestamp": "2025-12-24T22:42:20.744209+00:00",
        "meta_object_name": "STARLINK-35956",
        "meta_object_id": "2025-271N",
        "meta_epoch": "2025-12-24T06:05:20.296896",
        "meta_mean_motion": 15.54607913,
        "meta_eccentricity": 0.00082714,
        "meta_inclination": 53.1724,
        "meta_ra_of_asc_node": 132.0067,
        "meta_arg_of_pericenter": 31.118,
        "meta_mean_anomaly": 329.032,
        "meta_ephemeris_type": 0,
        "meta_classification_type": "U",
        "meta_norad_cat_id": 66629,
        "meta_element_set_no": 999,
        "meta_rev_at_epoch": 85,
        "meta_bstar": 0.0062497321,
        "meta_mean_motion_dot": 0.00444668,
        "meta_mean_motion_ddot": 0,
        "tle_line1": "1 66629U 25271N   25358.25370714  .00444668  00000+0  62497-2 0  9999",
        "tle_line2": "2 66629  53.1724 132.0067 0008271  31.1180 329.0320 15.54607913   857"
      },
      "geometry": {
        "type": "Point",
        "coordinates": [
          51.66967032332661,
          -52.436055807689115
        ]
      }
    },
    {
      "type": "Feature",
      "properties": {
        "norad_id": 66630,
        "name": "STARLINK-35949",
        "group": "last-30-days",
        "lat": 51.89328335211488,
        "lon": -123.9206369186237,
        "alt_km": 442.74774221468124,
        "timestamp": "2025-12-24T22:42:20.744222+00:00",
        "meta_object_name": "STARLINK-35949",
        "meta_object_id": "2025-271P",
        "meta_epoch": "2025-12-24T08:00:03.000384",
        "meta_mean_motion": 15.40974916,
        "meta_eccentricity": 0.00011446,
        "meta_inclination": 53.1603,
        "meta_ra_of_asc_node": 131.8896,
        "meta_arg_of_pericenter": 105.1434,
        "meta_mean_anomaly": 197.1623,
        "meta_ephemeris_type": 0,
        "meta_classification_type": "U",
        "meta_norad_cat_id": 66630,
        "meta_element_set_no": 999,
        "meta_rev_at_epoch": 610,
        "meta_bstar": -0.050710461,
        "meta_mean_motion_dot": -0.01901224,
        "meta_mean_motion_ddot": 0,
        "tle_line1": "1 66630U 25271P   25358.33336806 -.01901224  00000+0 -50710-1 0  9997",
        "tle_line2": "2 66630  53.1603 131.8896 0001144 105.1434 197.1623 15.40974916  6107"
      },
      "geometry": {
        "type": "Point",
        "coordinates": [
          -123.9206369186237,
          51.89328335211488
        ]
      }
    },
    {
      "type": "Feature",
      "properties": {
        "norad_id": 66631,
        "name": "STARLINK-35965",
        "group": "last-30-days",
        "lat": 49.45039678687812,
        "lon": -112.20857773212366,
        "alt_km": 432.41395551343885,
        "timestamp": "2025-12-24T22:42:20.744235+00:00",
        "meta_object_name": "STARLINK-35965",
        "meta_object_id": "2025-271Q",
        "meta_epoch": "2025-12-24T02:01:10.494336",
        "meta_mean_motion": 15.42508986,
        "meta_eccentricity": 0.00019945,
        "meta_inclination": 53.1597,
        "meta_ra_of_asc_node": 133.0666,
        "meta_arg_of_pericenter": 92.608,
        "meta_mean_anomaly": 267.5155,
        "meta_ephemeris_type": 0,
        "meta_classification_type": "U",
        "meta_norad_cat_id": 66631,
        "meta_element_set_no": 999,
        "meta_rev_at_epoch": 596,
        "meta_bstar": -0.0077114013,
        "meta_mean_motion_dot": -0.00325958,
        "meta_mean_motion_ddot": 0,
        "tle_line1": "1 66631U 25271Q   25358.08414924 -.00325958  00000+0 -77114-2 0  9999",
        "tle_line2": "2 66631  53.1597 133.0666 0001994  92.6080 267.5155 15.42508986  5966"
      },
      "geometry": {
        "type": "Point",
        "coordinates": [
          -112.20857773212366,
          49.45039678687812
        ]
      }
    }
  ]
}